NORAD_CAT_ID,OBJECT_NAME,OBJECT_TYPE,EPOCH,MEAN_MOTION,ECCENTRICITY,INCLINATION,RA_OF_ASC_NODE,ARG_OF_PERICENTER,MEAN_ANOMALY,BSTAR,MEAN_MOTION_DOT,MEAN_MOTION_DDOT,TLE_LINE0,TLE_LINE1,TLE_LINE2,SEMIMAJOR_AXIS,PERIOD,APOGEE,PERIGEE,DECAYED
54758.0,STARLINK-5464,PAYLOAD,2023-03-03 02:36:11,15.09449473,0.0001332,53.2165,309.03,69.2466,290.8669,0.0046132,0.00075162,0.0,0 STARLINK-5464,1 54758U 22175A   23062.10846149  .00075162  00000-0  46132-2 0  9991,2 54758  53.2165 309.0300 0001332  69.2466 290.8669 15.09449473 10096,6916.018,95.399,538.804,536.962,0.0
54758.0,STARLINK-5464,PAYLOAD,2023-03-03 21:39:45,15.09860417,0.0001454,53.2171,305.4594,106.8806,253.2346,0.0063612,0.0010538,0.0,0 STARLINK-5464,1 54758U 22175A   23062.90261488  .00105380  00000-0  63612-2 0  9994,2 54758  53.2171 305.4594 0001454 106.8806 253.2346 15.09860417 10213,6914.763,95.373,537.634,535.623,0.0
54758.0,STARLINK-5464,PAYLOAD,2023-03-04 10:00:01,15.10461036,0.0001536,53.2151,303.1468,70.5166,205.256,0.002238,0.00037144,0.0,0 STARLINK-5464,1 54758U 22175A   23063.41668981  .00037144  00000-0  22380-2 0  9999,2 54758  53.2151 303.1468 0001536  70.5166 205.2560 15.10461036 10292,6912.93,95.335,535.857,533.733,0.0
54758.0,STARLINK-5464,PAYLOAD,2023-03-04 14:00:01,15.10456086,0.0001512,53.2148,302.3963,75.2493,27.2383,0.0047703,0.00079974,0.0,0 STARLINK-5464,1 54758U 22175A   23063.58334491  .00079974  00000-0  47703-2 0  9996,2 54758  53.2148 302.3963 0001512  75.2493  27.2383 15.10456086  1304,6912.945,95.335,535.855,533.765,0.0
54758.0,STARLINK-5464,PAYLOAD,2023-03-04 22:00:00,15.10549384,0.0001577,53.2146,300.8979,74.4422,41.6124,-0.00837,-0.00137272,0.0,0 STARLINK-5464,1 54758U 22175A   23063.91667824 -.00137272  00000-0 -83700-2 0  9997,2 54758  53.2146 300.8979 0001577  74.4422  41.6124 15.10549384  1303,6912.66,95.33,535.616,533.435,0.0
54758.0,STARLINK-5464,PAYLOAD,2023-03-05 08:00:01,15.10457207,0.0001432,53.2142,299.0216,84.5944,138.4947,0.0002776,4.329e-05,0.0,0 STARLINK-5464,1 54758U 22175A   23064.33335648  .00004329  00000-0  27760-3 0  9999,2 54758  53.2142 299.0216 0001432  84.5944 138.4947 15.10457207 10437,6912.942,95.335,535.797,533.817,0.0
54758.0,STARLINK-5464,PAYLOAD,2023-03-05 14:00:01,15.1044892,0.0001442,53.2141,297.8957,90.1313,53.0511,0.0044045,0.00073739,0.0,0 STARLINK-5464,1 54758U 22175A   23064.58334491  .00073739  00000-0  44045-2 0  9996,2 54758  53.2141 297.8957 0001442  90.1313  53.0511 15.10448920  1305,6912.967,95.336,535.829,533.835,0.0
54758.0,STARLINK-5464,PAYLOAD,2023-03-05 22:00:00,15.10582463,0.0001237,53.2138,296.3973,81.6888,75.0426,-0.015409,-0.0024882,0.0,0 STARLINK-5464,1 54758U 22175A   23064.91667824 -.00248820  00000-0 -15409-1 0  9990,2 54758  53.2138 296.3973 0001237  81.6888  75.0426 15.10582463  1307,6912.559,95.327,535.28,533.569,0.0
54758.0,STARLINK-5464,PAYLOAD,2023-03-06 00:00:00,15.10588014,0.0001114,53.2139,296.0225,81.4565,168.6761,-0.021929,-0.00349153,0.0,0 STARLINK-5464,1 54758U 22175A   23065.00001157 -.00349153  00000-0 -21929-1 0  9997,2 54758  53.2139 296.0225 0001114  81.4565 168.6761 15.10588014 10533,6912.543,95.327,535.178,533.638,0.0
54758.0,STARLINK-5464,PAYLOAD,2023-03-06 14:00:01,15.10093036,8.42e-05,53.2134,293.3955,86.3355,97.2923,-0.028985,-0.00448872,0.0,0 STARLINK-5464,1 54758U 22175A   23065.58334491 -.00448872  00000-0 -28985-1 0  9997,2 54758  53.2134 293.3955 0000842  86.3355  97.2923 15.10093036 10628,6914.053,95.358,536.5,535.336,0.0
54758.0,STARLINK-5464,PAYLOAD,2023-03-06 22:00:00,15.09763467,0.000119,53.2133,291.8982,76.8668,119.6736,-0.029654,-0.00454712,0.0,0 STARLINK-5464,1 54758U 22175A   23065.91667824 -.00454712  00000-0 -29654-1 0  9997,2 54758  53.2133 291.8982 0001190  76.8668 119.6736 15.09763467  1304,6915.059,95.379,537.747,536.101,0.0
54758.0,STARLINK-5464,PAYLOAD,2023-03-07 06:40:22,15.09934027,0.0001587,53.2155,290.2741,95.3705,264.7469,-0.0038422,-0.00062757,0.0,0 STARLINK-5464,1 54758U 22175A   23066.27804196 -.00062757  00000-0 -38422-2 0  9990,2 54758  53.2155 290.2741 0001587  95.3705 264.7469 15.09934027 10725,6914.538,95.368,537.501,535.306,0.0
54758.0,STARLINK-5464,PAYLOAD,2023-03-07 20:58:43,15.0957265,0.0001858,53.2156,287.5975,97.7479,262.3724,-0.0061454,-0.00098718,0.0,0 STARLINK-5464,1 54758U 22175A   23066.87411315 -.00098718  00000-0 -61454-2 0  9990,2 54758  53.2156 287.5975 0001858  97.7479 262.3724 15.09572650 10817,6915.642,95.391,538.792,536.222,0.0
54758.0,STARLINK-5464,PAYLOAD,2023-03-08 06:00:00,15.088363,0.0001231,53.2146,285.9082,83.6938,160.8205,-0.00087669,-0.00014212,0.0,0 STARLINK-5464,1 54758U 22175A   23067.25001157 -.00014212  00000-0 -87669-3 0  9996,2 54758  53.2146 285.9082 0001231  83.6938 160.8205 15.08836300 10872,6917.892,95.438,540.608,538.905,0.0
54758.0,STARLINK-5464,PAYLOAD,2023-03-08 22:00:00,15.08847772,0.0001238,53.2149,282.9158,84.092,183.6152,-0.0022854,-0.00036483,0.0,0 STARLINK-5464,1 54758U 22175A   23067.91667824 -.00036483  00000-0 -22854-2 0  9996,2 54758  53.2149 282.9158 0001238  84.0920 183.6152 15.08847772  1306,6917.857,95.437,540.578,538.865,0.0
54758.0,STARLINK-5464,PAYLOAD,2023-03-09 02:00:01,15.08812731,0.0001128,53.2148,282.1678,80.8968,12.6144,0.0019875,0.00031461,0.0,0 STARLINK-5464,1 54758U 22175A   23068.08334491  .00031461  00000-0  19875-2 0  9994,2 54758  53.2148 282.1678 0001128  80.8968  12.6144 15.08812731 11005,6917.964,95.439,540.609,539.048,0.0
54758.0,STARLINK-5464,PAYLOAD,2023-03-09 22:00:00,15.08862054,9.65e-05,53.2154,278.4262,87.8493,214.633,-0.0047962,-0.0007586,0.0,0 STARLINK-5464,1 54758U 22175A   23068.91667824 -.00075860  00000-0 -47962-2 0  9996,2 54758  53.2154 278.4262 0000965  87.8493 214.6330 15.08862054 11124,6917.813,95.436,540.346,539.01,0.0
54758.0,STARLINK-5464,PAYLOAD,2023-03-10 00:00:00,15.08810034,9.35e-05,53.2154,278.0523,91.0614,304.3359,0.00094683,0.00014801,0.0,0 STARLINK-5464,1 54758U 22175A   23069.00001157  .00014801  00000-0  94683-3 0  9997,2 54758  53.2154 278.0523 0000935  91.0614 304.3359 15.08810034  1307,6917.972,95.439,540.484,539.19,0.0
54758.0,STARLINK-5464,PAYLOAD,2023-03-10 14:00:01,15.08826122,9.55e-05,53.2157,275.4314,109.3945,216.2342,0.0026039,0.00041381,0.0,0 STARLINK-5464,1 54758U 22175A   23069.58334491  .00041381  00000-0  26039-2 0  9992,2 54758  53.2157 275.4314 0000955 109.3945 216.2342 15.08826122 11221,6917.923,95.438,540.448,539.127,0.0
54758.0,STARLINK-5464,PAYLOAD,2023-03-10 22:00:00,15.0884485,8.95e-05,53.2157,273.9367,85.6023,251.6241,-0.0021402,-0.00034191,0.0,0 STARLINK-5464,1 54758U 22175A   23069.91667824 -.00034191  00000-0 -21402-2 0  9990,2 54758  53.2157 273.9367 0000895  85.6023 251.6241 15.08844850  1305,6917.866,95.437,540.35,539.111,0.0
54758.0,STARLINK-5464,PAYLOAD,2023-03-11 06:03:00,15.08831804,0.0001071,53.2178,272.4301,89.4113,270.7001,-1.7555e-05,-5.67e-06,0.0,0 STARLINK-5464,1 54758U 22175A   23070.25209384 -.00000567  00000-0 -17555-4 0  9998,2 54758  53.2178 272.4301 0001071  89.4113 270.7001 15.08831804 11323,6917.905,95.438,540.511,539.03,0.0
54758.0,STARLINK-5464,PAYLOAD,2023-03-11 14:00:01,15.08842821,8.55e-05,53.2159,270.9421,96.8122,263.6404,0.001223,0.00019231,0.0,0 STARLINK-5464,1 54758U 22175A   23070.58335648  .00019231  00000-0  12230-2 0  9996,2 54758  53.2159 270.9421 0000855  96.8122 263.6404 15.08842821  1316,6917.872,95.437,540.328,539.145,0.0
54758.0,STARLINK-5464,PAYLOAD,2023-03-11 15:35:19,15.08840787,0.0001064,53.2165,270.6456,92.3841,267.7273,-4.5412e-05,-1.01e-05,0.0,0 STARLINK-5464,1 54758U 22175A   23070.64953109 -.00001010  00000-0 -45412-4 0  9999,2 54758  53.2165 270.6456 0001064  92.3841 267.7273 15.08840787 11386,6917.878,95.438,540.479,539.007,0.0
54758.0,STARLINK-5464,PAYLOAD,2023-03-11 23:32:14,15.08848542,9.27e-05,53.2182,269.1587,98.9404,261.1693,-1.4123e-05,-5.13e-06,0.0,0 STARLINK-5464,1 54758U 22175A   23070.98072326 -.00000513  00000-0 -14123-4 0  9991,2 54758  53.2182 269.1587 0000927  98.9404 261.1693 15.08848542 11434,6917.854,95.437,540.361,539.078,0.0
54758.0,STARLINK-5464,PAYLOAD,2023-03-12 13:50:43,15.08832682,0.0001157,53.2177,266.4828,96.1295,263.9829,3.8532e-05,3.25e-06,0.0,0 STARLINK-5464,1 54758U 22175A   23071.57689624  .00000325  00000-0  38532-4 0  9991,2 54758  53.2177 266.4828 0001157  96.1295 263.9829 15.08832682 11529,6917.903,95.438,540.568,538.967,0.0
54758.0,STARLINK-5464,PAYLOAD,2023-03-12 21:47:38,15.08842785,9.63e-05,53.2188,264.9974,91.3438,268.7665,0.00012351,1.679e-05,0.0,0 STARLINK-5464,1 54758U 22175A   23071.90808794  .00001679  00000-0  12351-3 0  9992,2 54758  53.2188 264.9974 0000963  91.3438 268.7665 15.08842785 15010,6917.872,95.437,540.403,539.071,0.0
54758.0,STARLINK-5464,PAYLOAD,2023-03-13 12:06:07,15.08836889,0.0001323,53.2162,262.3206,86.9138,273.2005,2.0642e-05,4.1e-07,0.0,0 STARLINK-5464,1 54758U 22175A   23072.50425656  .00000041  00000-0  20642-4 0  9996,2 54758  53.2162 262.3206 0001323  86.9138 273.2005 15.08836889 11664,6917.89,95.438,540.67,538.84,0.0
54758.0,STARLINK-5464,PAYLOAD,2023-03-13 21:38:26,15.08837148,0.0001296,53.2159,260.5358,83.8095,276.3045,1.9754e-05,2.6e-07,0.0,0 STARLINK-5464,1 54758U 22175A   23072.90169701  .00000026  00000-0  19754-4 0  9991,2 54758  53.2159 260.5358 0001296  83.8095 276.3045 15.08837148 15161,6917.889,95.438,540.651,538.858,0.0
54758.0,STARLINK-5464,PAYLOAD,2023-03-14 11:56:54,15.08837549,0.0001241,53.216,257.8587,86.2753,273.8381,6.1244e-05,6.87e-06,0.0,0 STARLINK-5464,1 54758U 22175A   23073.49785605  .00000687  00000-0  61244-4 0  9997,2 54758  53.2160 257.8587 0001241  86.2753 273.8381 15.08837549 15254,6917.888,95.438,540.611,538.894,0.0
54758.0,STARLINK-5464,PAYLOAD,2023-03-14 21:29:13,15.08847249,0.0001115,53.2152,256.074,75.2365,284.875,4.0014e-05,3.49e-06,0.0,0 STARLINK-5464,1 54758U 22175A   23073.89528994  .00000349  00000-0  40014-4 0  9994,2 54758  53.2152 256.0740 0001115  75.2365 284.8750 15.08847249 15311,6917.858,95.437,540.495,538.952,0.0
